[{"OBJECT_NAME":"STARLINK-34631","OBJECT_ID":"2025-152P","EPOCH":"2026-03-09T14:25:45.084000","MEAN_MOTION":15.05649076,"ECCENTRICITY":0.0002118,"INCLINATION":97.6024,"RA_OF_ASC_NODE":285.4132,"ARG_OF_PERICENTER":84.8452,"MEAN_ANOMALY":275.3017,"EPHEMERIS_TYPE":0,"CLASSIFICATION_TYPE":"U","NORAD_CAT_ID":64855,"ELEMENT_SET_NO":999,"REV_AT_EPOCH":3540,"BSTAR":0.00021908,"MEAN_MOTION_DOT":3.102e-5,"MEAN_MOTION_DDOT":0},{"OBJECT_NAME":"ELECTRON KICK STAGE R\/B","OBJECT_ID":"2025-050C","EPOCH":"2026-03-09T00:02:16.856736","MEAN_MOTION":15.02509392,"ECCENTRICITY":0.00035941,"INCLINATION":42.0177,"RA_OF_ASC_NODE":293.46,"ARG_OF_PERICENTER":187.3175,"MEAN_ANOMALY":172.76,"EPHEMERIS_TYPE":0,"CLASSIFICATION_TYPE":"U","NORAD_CAT_ID":63207,"ELEMENT_SET_NO":999,"REV_AT_EPOCH":5391,"BSTAR":0.00054837611,"MEAN_MOTION_DOT":7.227e-5,"MEAN_MOTION_DDOT":0}]
